STARLINK-31793          
1 60053U 24112R   26068.43744422  .00000795  00000+0  38984-4 0  9992
2 60053  53.1612  79.4743 0001285  88.3571 271.7577 15.30197483 98550
HYPERFIELD-1A           
1 60562U 24149CY  26068.76488211  .00008569  00000+0  30052-3 0  9998
2 60562  97.3842 149.5066 0003865 313.7844  46.3076 15.29681349 86836
